IRIDIUM 155             
1 43573U 18061E   22008.73725759  .00000099  00000+0  28372-4 0  9998
2 43573  86.3965  13.8946 0001749  93.9724 266.1672 14.34215882181106
IRIDIUM 154             
1 43574U 18061F   22008.50891117  .00000020  00000+0  21185-6 0  9997
2 43574  86.3970  14.0460 0002349  84.1179 276.0285 14.34214866181112
IRIDIUM 163             
1 43575U 18061G   22008.55966631  .00000091  00000+0  25370-4 0  9993
2 43575  86.3966  13.9898 0002522  96.7552 263.3931 14.34217406181095
IRIDIUM 156             
1 43576U 18061H   22008.74359719  .00000097  00000+0  27451-4 0  9996
2 43576  86.3966  13.9181 0002135  98.9684 261.1753 14.34214866181108
IRIDIUM 164             
1 43577U 18061J   22008.51526752  .00000098  00000+0  28088-4 0  9993
2 43577  86.3967  14.0293 0002399  88.1286 272.0184 14.34217988181126
IRIDIUM 159             
1 43578U 18061K   22008.76262532  .00000094  00000+0  26637-4 0  9998
2 43578  86.3966  13.8967 0002310  86.7275 273.4185 14.34218303181124
IRIDIUM 180             
1 43922U 19002A   22008.55282418  .00000106  00000+0  30715-4 0  9995
2 43922  86.3978 310.8544 0002933  80.2084 279.9443 14.34214945156701
IRIDIUM 176             
1 43923U 19002B   22008.80876564  .00000243  00000+0  34640-4 0  9998
2 43923  86.6113 310.7822 0002226  81.9240 278.2229 14.72269681160844
IRIDIUM 168             
1 43924U 19002C   22008.54647889  .00000109  00000+0  31985-4 0  9996
2 43924  86.3981 310.8887 0002331  79.9646 280.1812 14.34214691156687
IRIDIUM 173             
1 43925U 19002D   22008.53379210  .00000109  00000+0  31831-4 0  9996
2 43925  86.3977 310.8488 0002314  82.6960 277.4499 14.34214801156662
IRIDIUM 169             
1 43926U 19002E   22008.46358617  .00000106  00000+0  28280-4 0  9998
2 43926  86.4234 342.4793 0002669 288.2145  71.8762 14.38599804157216
IRIDIUM 172             
1 43927U 19002F   22008.38791401  .00000105  00000+0  30319-4 0  9997
2 43927  86.3978 310.9128 0002400  81.7276 278.4191 14.34217784156655
IRIDIUM 175             
1 43928U 19002G   22008.32679119  .00000248  00000+0  35421-4 0  9990
2 43928  86.6114 310.8092 0002811  86.2145 273.9393 14.72269141160768
IRIDIUM 171             
1 43929U 19002H   22008.57818112  .00000103  00000+0  29577-4 0  9991
2 43929  86.3988 310.9596 0002306  79.8734 280.2722 14.34219166156678
IRIDIUM 170             
1 43930U 19002J   22008.54310835  .00000248  00000+0  35465-4 0  9992
2 43930  86.6112 310.8990 0002536  82.9123 277.2382 14.72268992160813
IRIDIUM 167             
1 43931U 19002K   22008.85092460  .00000103  00000+0  29892-4 0  9995
2 43931  86.3979 310.7274 0002695  79.3126 280.8373 14.34215842156713
